ONEWEB-0158             
1 48054U 21025N   26161.19616738  .00000263  00000+0  68510-3 0  9991
2 48054  87.8956 321.6090 0001607  91.3451 268.7862 13.13471360252719
ONEWEB-0157             
1 48055U 21025P   26161.14537569  .00000019  00000+0  17017-4 0  9997
2 48055  87.8954 321.6250 0001934 106.4740 253.6602 13.13468985252644
ONEWEB-0162             
1 48056U 21025Q   26161.19771392  .00000291  00000+0  76167-3 0  9999
2 48056  87.8952 321.6155 0001991  94.2297 265.9060 13.13469675252620
ONEWEB-0155             
1 48057U 21025R   26161.20461907  .00000375  00000+0  99079-3 0  9990
2 48057  87.8953 321.6103 0001724 100.6525 259.4799 13.13469381252761
ONEWEB-0149             
1 48058U 21025S   26161.15045084 -.00000121  00000+0 -36651-3 0  9997
2 48058  87.8956 321.6242 0002023  93.6474 266.4887 13.13469474252563
ONEWEB-0148             
1 48059U 21025T   26161.18938446  .00000163  00000+0  41172-3 0  9992
2 48059  87.8947 321.6241 0002403  96.2835 263.8568 13.13470263252694
ONEWEB-0160             
1 48060U 21025U   26161.20631327  .00000367  00000+0  96939-3 0  9992
2 48060  87.8950 321.6168 0001618  71.1963 288.9342 13.13470172252641
ONEWEB-0163             
1 48061U 21025V   26161.19107300  .00000145  00000+0  36155-3 0  9998
2 48061  87.8955 321.6137 0001883 104.3376 255.7963 13.13471188252766
ONEWEB-0159             
1 48062U 21025W   26161.18260910 -.00000040  00000+0 -14392-3 0  9990
2 48062  87.8957 321.6089 0001834 103.3402 256.7932 13.13470977252683
ONEWEB-0164             
1 48063U 21025X   26161.16398325 -.00000349  00000+0 -99006-3 0  9998
2 48063  87.8958 321.6187 0001756  93.3519 266.7811 13.13469954252662
ONEWEB-0167             
1 48064U 21025Y   26161.19190725  .00000155  00000+0  38926-3 0  9993
2 48064  87.8946 321.6238 0001476 116.1952 243.9329 13.13472269252654
ONEWEB-0166             
1 48065U 21025Z   26161.13858888  .00000216  00000+0  55622-3 0  9999
2 48065  87.8959 321.6051 0002000  96.7173 263.4183 13.13470808252724
ONEWEB-0151             
1 48066U 21025AA  26161.14028504  .00000158  00000+0  39788-3 0  9995
2 48066  87.8948 321.6222 0001689  96.9135 263.2186 13.13469357252666
ONEWEB-0170             
1 48067U 21025AB  26161.14874973 -.00000074  00000+0 -23871-3 0  9990
2 48067  87.8949 321.6223 0001385  87.6731 272.4556 13.13469413252623
ONEWEB-0168             
1 48068U 21025AC  26161.20969538  .00000297  00000+0  77750-3 0  9990
2 48068  87.8958 321.6097 0001909 100.5366 259.5979 13.13469287252640
ONEWEB-0173             
1 48069U 21025AD  26161.20123332  .00000350  00000+0  92480-3 0  9992
2 48069  87.8950 321.6135 0001799 108.0557 252.0769 13.13469811252882
ONEWEB-0171             
1 48070U 21025AE  26161.16229312 -.00000389  00000+0 -10998-2 0  9991
2 48070  87.8947 321.6292 0001723  95.6177 264.5148 13.13470163252690
ONEWEB-0172             
1 48071U 21025AF  26160.98962208  .00000077  00000+0  17657-3 0  9991
2 48071  87.8954 321.6533 0001696  99.8683 260.2638 13.13470375253563
ONEWEB-0174             
1 48072U 21025AG  26161.19954814  .00000312  00000+0  81851-3 0  9999
2 48072  87.8951 321.6111 0001974  97.0113 263.1240 13.13470203252919
ONEWEB-0175             
1 48073U 21025AH  26161.15383285 -.00000209  00000+0 -60732-3 0  9996
2 48073  87.8959 321.6037 0001459  96.6125 263.5170 13.13469555252566
ONEWEB-0177             
1 48074U 21025AJ  26161.16567699 -.00000339  00000+0 -96452-3 0  9993
2 48074  87.8955 321.6200 0001984 100.1445 259.9908 13.13470781252756
ONEWEB-0178             
1 48075U 21025AK  26161.18442506 -.00000040  00000+0 -14487-3 0  9992
2 48075  87.8939 321.6301 0001629 102.7762 257.3549 13.13472278252809
ONEWEB-0108             
1 48076U 21025AL  26161.14367417  .00000068  00000+0  15074-3 0  9997
2 48076  87.8959 321.6157 0001940  89.0136 271.1216 13.13469615252726
ONEWEB-0169             
1 48077U 21025AM  26161.17583497 -.00000175  00000+0 -51528-3 0  9994
2 48077  87.8948 321.6180 0001935  96.6048 263.5302 13.13470018251382
ONEWEB-0176             
1 48210U 21031A   26161.10003944 -.00000037  00000+0 -13296-3 0  9994
2 48210  87.8958 291.1119 0001825 103.0222 257.1112 13.14503290247383
ONEWEB-0184             
1 48211U 21031B   26161.07307355 -.00000278  00000+0 -78440-3 0  9993
2 48211  87.8967 291.1176 0001272 120.0177 240.1079 13.14502731247351
ONEWEB-0179             
1 48212U 21031C   26161.07549104  .00000103  00000+0  28432-4 0  9996
2 48212  87.8984 288.6845 0218632 280.6443  77.0197 14.25518477248035
ONEWEB-0180             
1 48213U 21031D   26161.07624889 -.00000251  00000+0 -71089-3 0  9992
2 48213  87.8965 291.1133 0002037 113.0800 247.0544 13.14502845247280
ONEWEB-0218             
1 48214U 21031E   26161.09844923 -.00000067  00000+0 -21541-3 0  9991
2 48214  87.8966 291.1078 0001529 128.5067 231.6200 13.14502573247445
ONEWEB-0209             
1 48215U 21031F   26160.85898052 -.00000379  00000+0 -10580-2 0  9993
2 48215  87.8956 291.1732 0002039 105.6770 254.4585 13.14504611247417
