OBJECT_NAME,OBJECT_ID,EPOCH,MEAN_MOTION,ECCENTRICITY,INCLINATION,RA_OF_ASC_NODE,ARG_OF_PERICENTER,MEAN_ANOMALY,EPHEMERIS_TYPE,CLASSIFICATION_TYPE,NORAD_CAT_ID,ELEMENT_SET_NO,REV_AT_EPOCH,BSTAR,MEAN_MOTION_DOT,MEAN_MOTION_DDOT
ONEWEB-0158,2021-025N,2026-06-10T04:42:28.861632,13.13471360,.00016077,87.8956,321.6090,91.3451,268.7862,0,U,48054,999,25271,.68509982E-3,.263E-5,0
ONEWEB-0157,2021-025P,2026-06-10T03:29:20.459616,13.13468985,.00019347,87.8954,321.6250,106.4740,253.6602,0,U,48055,999,25264,.17016859E-4,.19E-6,0
ONEWEB-0162,2021-025Q,2026-06-10T04:44:42.482688,13.13469675,.0001991,87.8952,321.6155,94.2297,265.9060,0,U,48056,999,25262,.76167368E-3,.291E-5,0
ONEWEB-0155,2021-025R,2026-06-10T04:54:39.087648,13.13469381,.00017246,87.8953,321.6103,100.6525,259.4799,0,U,48057,999,25276,.99078652E-3,.375E-5,0
ONEWEB-0149,2021-025S,2026-06-10T03:36:38.952576,13.13469474,.00020239,87.8956,321.6242,93.6474,266.4887,0,U,48058,999,25256,-.36650778E-3,-.121E-5,0
ONEWEB-0148,2021-025T,2026-06-10T04:32:42.817344,13.13470263,.00024031,87.8947,321.6241,96.2835,263.8568,0,U,48059,999,25269,.41172374E-3,.163E-5,0
ONEWEB-0160,2021-025U,2026-06-10T04:57:05.466528,13.13470172,.00016186,87.8950,321.6168,71.1963,288.9342,0,U,48060,999,25264,.9693889E-3,.367E-5,0
ONEWEB-0163,2021-025V,2026-06-10T04:35:08.707200,13.13471188,.00018837,87.8955,321.6137,104.3376,255.7963,0,U,48061,999,25276,.36155398E-3,.145E-5,0
ONEWEB-0159,2021-025W,2026-06-10T04:22:57.426240,13.13470977,.00018345,87.8957,321.6089,103.3402,256.7932,0,U,48062,999,25268,-.14391634E-3,-.4E-6,0
ONEWEB-0164,2021-025X,2026-06-10T03:56:08.152800,13.13469954,.00017562,87.8958,321.6187,93.3519,266.7811,0,U,48063,999,25266,-.99005807E-3,-.349E-5,0
ONEWEB-0167,2021-025Y,2026-06-10T04:36:20.786400,13.13472269,.00014763,87.8946,321.6238,116.1952,243.9329,0,U,48064,999,25265,.38925849E-3,.155E-5,0
ONEWEB-0166,2021-025Z,2026-06-10T03:19:34.079232,13.13470808,.00020006,87.8959,321.6051,96.7173,263.4183,0,U,48065,999,25272,.55622416E-3,.216E-5,0
ONEWEB-0151,2021-025AA,2026-06-10T03:22:00.627456,13.13469357,.00016895,87.8948,321.6222,96.9135,263.2186,0,U,48066,999,25266,.39788169E-3,.158E-5,0
ONEWEB-0170,2021-025AB,2026-06-10T03:34:11.976672,13.13469413,.00013859,87.8949,321.6223,87.6731,272.4556,0,U,48067,999,25262,-.23871456E-3,-.74E-6,0
ONEWEB-0168,2021-025AC,2026-06-10T05:01:57.680832,13.13469287,.00019098,87.8958,321.6097,100.5366,259.5979,0,U,48068,999,25264,.77750406E-3,.297E-5,0
ONEWEB-0173,2021-025AD,2026-06-10T04:49:46.558848,13.13469811,.0001799,87.8950,321.6135,108.0557,252.0769,0,U,48069,999,25288,.92479677E-3,.35E-5,0
ONEWEB-0171,2021-025AE,2026-06-10T03:53:42.125568,13.13470163,.00017235,87.8947,321.6292,95.6177,264.5148,0,U,48070,999,25269,-.10997959E-2,-.389E-5,0
ONEWEB-0172,2021-025AF,2026-06-09T23:45:03.347712,13.13470375,.00016966,87.8954,321.6533,99.8683,260.2638,0,U,48071,999,25356,.17656595E-3,.77E-6,0
ONEWEB-0174,2021-025AG,2026-06-10T04:47:20.959296,13.13470203,.00019743,87.8951,321.6111,97.0113,263.1240,0,U,48072,999,25291,.81850592E-3,.312E-5,0
ONEWEB-0175,2021-025AH,2026-06-10T03:41:31.158240,13.13469555,.00014599,87.8959,321.6037,96.6125,263.5170,0,U,48073,999,25256,-.60731852E-3,-.209E-5,0
ONEWEB-0177,2021-025AJ,2026-06-10T03:58:34.491936,13.13470781,.00019843,87.8955,321.6200,100.1445,259.9908,0,U,48074,999,25275,-.96451515E-3,-.339E-5,0
ONEWEB-0178,2021-025AK,2026-06-10T04:25:34.325184,13.13472278,.00016299,87.8939,321.6301,102.7762,257.3549,0,U,48075,999,25280,-.14487E-3,-.4E-6,0
ONEWEB-0108,2021-025AL,2026-06-10T03:26:53.448288,13.13469615,.00019403,87.8959,321.6157,89.0136,271.1216,0,U,48076,999,25272,.15073575E-3,.68E-6,0
ONEWEB-0169,2021-025AM,2026-06-10T04:13:12.141408,13.13470018,.00019355,87.8948,321.6180,96.6048,263.5302,0,U,48077,999,25138,-.51528322E-3,-.175E-5,0
ONEWEB-0176,2021-031A,2026-06-10T02:24:03.407616,13.14503290,.00018258,87.8958,291.1119,103.0222,257.1112,0,U,48210,999,24738,-.13296254E-3,-.37E-6,0
ONEWEB-0184,2021-031B,2026-06-10T01:45:13.554720,13.14502731,.00012725,87.8967,291.1176,120.0177,240.1079,0,U,48211,999,24735,-.78439812E-3,-.278E-5,0
ONEWEB-0179,2021-031C,2026-06-10T01:48:42.425856,14.25518477,.02186328,87.8984,288.6845,280.6443,77.0197,0,U,48212,999,24803,.28432385E-4,.103E-5,0
ONEWEB-0180,2021-031D,2026-06-10T01:49:47.904096,13.14502845,.00020371,87.8965,291.1133,113.0800,247.0544,0,U,48213,999,24728,-.71088942E-3,-.251E-5,0
ONEWEB-0218,2021-031E,2026-06-10T02:21:46.013472,13.14502573,.00015297,87.8966,291.1078,128.5067,231.6200,0,U,48214,999,24744,-.21540973E-3,-.67E-6,0
ONEWEB-0209,2021-031F,2026-06-09T20:36:55.916928,13.14504611,.00020398,87.8956,291.1732,105.6770,254.4585,0,U,48215,999,24741,-.10579803E-2,-.379E-5,0
